OBJECT_NAME,OBJECT_ID,EPOCH,MEAN_MOTION,ECCENTRICITY,INCLINATION,RA_OF_ASC_NODE,ARG_OF_PERICENTER,MEAN_ANOMALY,EPHEMERIS_TYPE,CLASSIFICATION_TYPE,NORAD_CAT_ID,ELEMENT_SET_NO,REV_AT_EPOCH,BSTAR,MEAN_MOTION_DOT,MEAN_MOTION_DDOT
DUCHIFAT-1,2014-033M,2026-07-20T18:33:43.069824,15.72127670,.00034386,98.0408,265.8557,229.1155,130.9809,0,U,40021,999,66101,.81364681E-3,.107775E-2,0
NANOSATC-BR1,2014-033Q,2026-07-20T01:25:54.697440,15.32422309,.00051396,98.0707,236.3841,85.0134,275.1692,0,U,40024,999,65901,.31481997E-3,.9772E-4,0
QB50P1,2014-033R,2026-07-20T11:50:15.612864,15.18713788,.00105298,98.0973,214.9866,109.2595,250.9778,0,U,40025,999,65808,.22433766E-3,.4584E-4,0
DTUSAT-2,2014-033W,2026-07-20T22:01:03.173376,15.15396567,.00096199,98.0885,201.7984,115.3491,244.8737,0,U,40030,999,65779,.23635005E-3,.4392E-4,0
QB50P2,2014-033Y,2026-07-20T23:23:06.435456,15.15553719,.00091447,98.0771,200.9707,67.6874,292.5326,0,U,40032,999,65778,.24765819E-3,.4626E-4,0
PERSEUS-M1,2014-033AF,2026-07-20T19:42:00.423072,14.95725439,.00113304,97.9653,146.5093,178.0215,182.1052,0,U,40039,999,65566,.41818728E-4,.405E-5,0
POLYITAN-1,2014-033AJ,2026-07-20T20:17:04.794432,15.34345440,.00073868,98.0939,231.3187,47.4734,312.7130,0,U,40042,999,65875,.41821953E-3,.13839E-3,0
TIGRISAT,2014-033AK,2026-07-20T22:28:09.004512,14.85259956,.0048182,97.7873,351.1843,325.2166,34.5902,0,U,40043,999,65063,.11612717E-3,.961E-5,0
CANX-4,2014-034C,2026-07-20T22:14:10.640256,14.81317179,.00113727,98.3075,78.4714,262.2011,97.7910,0,U,40055,999,64952,.72017063E-4,.505E-5,0
CANX-5,2014-034D,2026-07-20T22:11:21.203808,14.81334525,.00113767,98.3078,78.5149,262.4767,97.5152,0,U,40056,999,64033,.7227107E-4,.507E-5,0
GONETS-M 10,2014-036C,2026-07-20T22:59:42.518400,12.42946453,.00228485,82.5113,286.7006,70.4763,289.8782,0,U,40063,999,54644,.42194687E-4,.16E-6,0
METEOR-M 2,2014-037A,2026-07-20T22:23:05.533152,14.21469223,.00047831,98.5142,176.4800,307.2822,52.7920,0,U,40069,999,62411,-.88560204E-4,-.236E-5,0
DX1,2014-037C,2026-07-20T22:30:52.800768,14.90074281,.00075878,98.3894,165.6941,151.1032,209.0606,0,U,40071,999,65113,.12697758E-3,.1164E-4,0
UKUBE-1,2014-037F,2026-07-20T22:41:12.909120,15.14005396,.00031535,98.4253,208.7782,78.4242,281.7341,0,U,40074,999,65366,.31823271E-3,.5701E-4,0
GAOFEN-2,2014-049A,2026-07-20T23:02:05.257248,14.80932473,.00086027,98.0089,266.1320,118.5578,241.6501,0,U,40118,999,64423,.63965541E-4,.441E-5,0
BRITE-PL2 (HEWELIUSZ),2014-049B,2026-07-20T20:18:50.726016,14.94696779,.00137817,97.9121,314.1126,3.8262,356.3061,0,U,40119,999,64647,.1118261E-3,.1155E-4,0
CBERS 4,2014-079A,2026-07-20T23:34:01.019136,14.35516559,.00005922,98.3510,257.7500,70.2649,289.8601,0,U,40336,999,60880,-.5889003E-5,-.59E-6,0
SMAP,2015-003A,2026-07-20T22:13:14.437056,14.63392106,.00016317,98.1286,208.5441,92.8977,267.2412,0,U,40376,999,61255,.54457657E-4,.235E-5,0
GONETS-M 11,2015-020A,2026-07-20T21:32:52.406592,12.42878741,.0015273,82.4876,9.9811,289.9406,70.0028,0,U,40552,999,51292,.34416345E-3,.57E-6,0
GONETS-M 12,2015-020B,2026-07-20T22:50:05.877024,12.42892079,.00142171,82.4908,11.0803,273.5264,86.4190,0,U,40553,999,51292,.17713386E-3,.34E-6,0
GONETS-M 13,2015-020C,2026-07-20T22:12:43.269984,12.42871773,.00128354,82.4871,9.7018,257.2712,102.6933,0,U,40554,999,51289,-.12948006E-3,-.8E-7,0
DMC3-FM1,2015-032A,2026-07-20T22:42:42.606144,14.85769422,.00044381,97.6419,65.7901,316.6836,43.4030,0,U,40715,999,59492,-.3213218E-4,-.33E-5,0
DMC3-FM2,2015-032B,2026-07-20T21:37:17.094720,14.85774989,.00050709,97.6470,67.3430,321.0335,39.0514,0,U,40716,999,59491,-.15903252E-4,-.19E-5,0
DMC3-FM3,2015-032C,2026-07-20T22:11:13.654176,14.85766567,.00042203,97.6522,69.1401,323.9114,36.1816,0,U,40717,999,59492,.65323801E-4,.516E-5,0
CARBONITE 1 (CBNT-1),2015-032D,2026-07-20T23:19:13.983168,14.83675468,.00143885,97.6530,18.6281,177.6844,182.4440,0,U,40718,999,59435,.70518085E-4,.532E-5,0
LILACSAT-2,2015-049K,2026-07-20T22:16:52.544352,15.52491518,.00086356,97.4628,240.0713,124.7606,235.4461,0,U,40908,999,60098,.22459303E-3,.13675E-3,0
