DUCHIFAT-1              
1 40021U 14033M   26201.77341516  .00107775  00000+0  81365-3 0  9995
2 40021  98.0408 265.8557 0003438 229.1155 130.9809 15.72127670661011
NANOSATC-BR1            
1 40024U 14033Q   26201.05966085  .00009772  00000+0  31482-3 0  9996
2 40024  98.0707 236.3841 0005139  85.0134 275.1692 15.32422309659013
QB50P1                  
1 40025U 14033R   26201.49323626  .00004584  00000+0  22434-3 0  9996
2 40025  98.0973 214.9866 0010529 109.2595 250.9778 15.18713788658087
DTUSAT-2                
1 40030U 14033W   26201.91739784  .00004392  00000+0  23635-3 0  9996
2 40030  98.0885 201.7984 0009619 115.3491 244.8737 15.15396567657794
QB50P2                  
1 40032U 14033Y   26201.97438004  .00004626  00000+0  24766-3 0  9991
2 40032  98.0771 200.9707 0009144  67.6874 292.5326 15.15553719657788
PERSEUS-M1              
1 40039U 14033AF  26201.82083823  .00000405  00000+0  41819-4 0  9997
2 40039  97.9653 146.5093 0011330 178.0215 182.1052 14.95725439655663
POLYITAN-1              
1 40042U 14033AJ  26201.84519438  .00013839  00000+0  41822-3 0  9997
2 40042  98.0939 231.3187 0007386  47.4734 312.7130 15.34345440658759
TIGRISAT                
1 40043U 14033AK  26201.93621533  .00000961  00000+0  11613-3 0  9995
2 40043  97.7873 351.1843 0048182 325.2166  34.5902 14.85259956650634
CANX-4                  
1 40055U 14034C   26201.92651204  .00000505  00000+0  72017-4 0  9996
2 40055  98.3075  78.4714 0011372 262.2011  97.7910 14.81317179649528
CANX-5                  
1 40056U 14034D   26201.92455097  .00000507  00000+0  72271-4 0  9993
2 40056  98.3078  78.5149 0011376 262.4767  97.5152 14.81334525640339
GONETS-M 10             
1 40063U 14036C   26201.95813100  .00000016  00000+0  42195-4 0  9996
2 40063  82.5113 286.7006 0022848  70.4763 289.8782 12.42946453546442
METEOR-M 2              
1 40069U 14037A   26201.93270293 -.00000236  00000+0 -88560-4 0  9993
2 40069  98.5142 176.4800 0004783 307.2822  52.7920 14.21469223624115
DX1                     
1 40071U 14037C   26201.93811112  .00001164  00000+0  12698-3 0  9994
2 40071  98.3894 165.6941 0007587 151.1032 209.0606 14.90074281651132
UKUBE-1                 
1 40074U 14037F   26201.94528830  .00005701  00000+0  31823-3 0  9992
2 40074  98.4253 208.7782 0003153  78.4242 281.7341 15.14005396653667
GAOFEN-2                
1 40118U 14049A   26201.95978307  .00000441  00000+0  63966-4 0  9993
2 40118  98.0089 266.1320 0008602 118.5578 241.6501 14.80932473644230
BRITE-PL2 (HEWELIUSZ)   
1 40119U 14049B   26201.84642044  .00001155  00000+0  11183-3 0  9994
2 40119  97.9121 314.1126 0013781   3.8262 356.3061 14.94696779646478
CBERS 4                 
1 40336U 14079A   26201.98195624 -.00000059  00000+0 -58890-5 0  9992
2 40336  98.3510 257.7500 0000592  70.2649 289.8601 14.35516559608804
SMAP                    
1 40376U 15003A   26201.92586154  .00000235  00000+0  54458-4 0  9999
2 40376  98.1286 208.5441 0001631  92.8977 267.2412 14.63392106612551
GONETS-M 11             
1 40552U 15020A   26201.89782878  .00000057  00000+0  34416-3 0  9994
2 40552  82.4876   9.9811 0015273 289.9406  70.0028 12.42878741512927
GONETS-M 12             
1 40553U 15020B   26201.95145691  .00000034  00000+0  17713-3 0  9994
2 40553  82.4908  11.0803 0014217 273.5264  86.4190 12.42892079512928
GONETS-M 13             
1 40554U 15020C   26201.92550081 -.00000008  00000+0 -12948-3 0  9993
2 40554  82.4871   9.7018 0012835 257.2712 102.6933 12.42871773512891
DMC3-FM1                
1 40715U 15032A   26201.94632646 -.00000330  00000+0 -32132-4 0  9991
2 40715  97.6419  65.7901 0004438 316.6836  43.4030 14.85769422594926
DMC3-FM2                
1 40716U 15032B   26201.90089230 -.00000190  00000+0 -15903-4 0  9994
2 40716  97.6470  67.3430 0005070 321.0335  39.0514 14.85774989594917
DMC3-FM3                
1 40717U 15032C   26201.92446359  .00000516  00000+0  65324-4 0  9998
2 40717  97.6522  69.1401 0004220 323.9114  36.1816 14.85766567594923
CARBONITE 1 (CBNT-1)    
1 40718U 15032D   26201.97168962  .00000532  00000+0  70518-4 0  9994
2 40718  97.6530  18.6281 0014388 177.6844 182.4440 14.83675468594350
LILACSAT-2              
1 40908U 15049K   26201.92838593  .00013675  00000+0  22459-3 0  9994
2 40908  97.4628 240.0713 0008635 124.7606 235.4461 15.52491518600983
